{"type": "FeatureCollection", "features": [ {"type": "Feature", "properties": {"norad_id": 40701, "name": "GAOFEN-8", "group": "resource", "lat": -48.82533851892318, "lon": -16.70321690552431, "alt_km": 460.111783830117, "timestamp": "2025-12-19T16:54:43.908239+00:00", "meta": {"OBJECT_NAME": "GAOFEN-8", "OBJECT_ID": "2015-030A", "EPOCH": "2025-12-19T06:33:19.132704", "MEAN_MOTION": 15.38752377, "ECCENTRICITY": 0.00119382, "INCLINATION": 97.6902, "RA_OF_ASC_NODE": 171.7316, "ARG_OF_PERICENTER": 116.0338, "MEAN_ANOMALY": 244.2137, "EPHEMERIS_TYPE": 0, "CLASSIFICATION_TYPE": "U", "NORAD_CAT_ID": 40701, "ELEMENT_SET_NO": 999, "REV_AT_EPOCH": 58371, "BSTAR": 0.00019749267, "MEAN_MOTION_DOT": 7.492e-05, "MEAN_MOTION_DDOT": 0}, "tle": {"line1": "1 40701U 15030A   25353.27313811  .00007492  00000+0  19749-3 0  9999", "line2": "2 40701  97.6902 171.7316 0011938 116.0338 244.2137 15.38752377583712"}}, "geometry": {"type": "Point", "coordinates": [-16.70321690552431, -48.82533851892318]}}, {"type": "Feature", "properties": {"norad_id": 40718, "name": "CARBONITE 1 (CBNT-1)", "group": "resource", "lat": -20.94268632735782, "lon": -8.503399570588021, "alt_km": 618.1433289330043, "timestamp": "2025-12-19T16:54:43.908249+00:00", "meta": {"OBJECT_NAME": "CARBONITE 1 (CBNT-1)", "OBJECT_ID": "2015-032D", "EPOCH": "2025-12-19T07:54:40.476960", "MEAN_MOTION": 14.82773156, "ECCENTRICITY": 0.0014938, "INCLINATION": 97.6394, "RA_OF_ASC_NODE": 174.0827, "ARG_OF_PERICENTER": 159.962, "MEAN_ANOMALY": 200.2184, "EPHEMERIS_TYPE": 0, "CLASSIFICATION_TYPE": "U", "NORAD_CAT_ID": 40718, "ELEMENT_SET_NO": 999, "REV_AT_EPOCH": 56268, "BSTAR": 0.00023727432, "MEAN_MOTION_DOT": 1.871e-05, "MEAN_MOTION_DDOT": 0}, "tle": {"line1": "1 40718U 15032D   25353.32963515  .00001871  00000+0  23727-3 0  9993", "line2": "2 40718  97.6394 174.0827 0014938 159.9620 200.2184 14.82773156562684"}}, "geometry": {"type": "Point", "coordinates": [-8.503399570588021, -20.94268632735782]}}, {"type": "Feature", "properties": {"norad_id": 40878, "name": "YAOGAN-27", "group": "resource", "lat": 45.21481197462121, "lon": -27.33569190607546, "alt_km": 1199.9025403002397, "timestamp": "2025-12-19T16:54:43.908260+00:00", "meta": {"OBJECT_NAME": "YAOGAN-27", "OBJECT_ID": "2015-040A", "EPOCH": "2025-12-19T05:43:53.045760", "MEAN_MOTION": 13.16062299, "ECCENTRICITY": 0.00075732, "INCLINATION": 100.1006, "RA_OF_ASC_NODE": 342.565, "ARG_OF_PERICENTER": 270.9228, "MEAN_ANOMALY": 89.1018, "EPHEMERIS_TYPE": 0, "CLASSIFICATION_TYPE": "U", "NORAD_CAT_ID": 40878, "ELEMENT_SET_NO": 999, "REV_AT_EPOCH": 49399, "BSTAR": 0.00067206325, "MEAN_MOTION_DOT": 2.13e-06, "MEAN_MOTION_DDOT": 0}, "tle": {"line1": "1 40878U 15040A   25353.23880840  .00000213  00000+0  67206-3 0  9997", "line2": "2 40878 100.1006 342.5650 0007573 270.9228  89.1018 13.16062299493994"}}, "geometry": {"type": "Point", "coordinates": [-27.33569190607546, 45.21481197462121]}}, {"type": "Feature", "properties": {"norad_id": 40894, "name": "GAOFEN-9 01", "group": "resource", "lat": 65.0469648866394, "lon": -130.8435549517862, "alt_km": 619.2549334327532, "timestamp": "2025-12-19T16:54:43.908271+00:00", "meta": {"OBJECT_NAME": "GAOFEN-9 01", "OBJECT_ID": "2015-047A", "EPOCH": "2025-12-19T08:18:09.890784", "MEAN_MOTION": 14.82437691, "ECCENTRICITY": 0.00278685, "INCLINATION": 97.6534, "RA_OF_ASC_NODE": 32.016, "ARG_OF_PERICENTER": 13.1158, "MEAN_ANOMALY": 347.0775, "EPHEMERIS_TYPE": 0, "CLASSIFICATION_TYPE": "U", "NORAD_CAT_ID": 40894, "ELEMENT_SET_NO": 999, "REV_AT_EPOCH": 55354, "BSTAR": 0.00010876404, "MEAN_MOTION_DOT": 8.26e-06, "MEAN_MOTION_DDOT": 0}, "tle": {"line1": "1 40894U 15047A   25353.34594781  .00000826  00000+0  10876-3 0  9991", "line2": "2 40894  97.6534  32.0160 0027868  13.1158 347.0775 14.82437691553543"}}, "geometry": {"type": "Point", "coordinates": [-130.8435549517862, 65.0469648866394]}}, {"type": "Feature", "properties": {"norad_id": 41026, "name": "YAOGAN-28", "group": "resource", "lat": -55.22174614217529, "lon": -59.308396763835, "alt_km": 505.29689913087714, "timestamp": "2025-12-19T16:54:43.908281+00:00", "meta": {"OBJECT_NAME": "YAOGAN-28", "OBJECT_ID": "2015-064A", "EPOCH": "2025-12-19T08:00:18.542880", "MEAN_MOTION": 15.24456025, "ECCENTRICITY": 0.00126114, "INCLINATION": 97.2809, "RA_OF_ASC_NODE": 130.94, "ARG_OF_PERICENTER": 105.0417, "MEAN_ANOMALY": 255.2218, "EPHEMERIS_TYPE": 0, "CLASSIFICATION_TYPE": "U", "NORAD_CAT_ID": 41026, "ELEMENT_SET_NO": 999, "REV_AT_EPOCH": 56325, "BSTAR": 0.00025678886, "MEAN_MOTION_DOT": 6.249e-05, "MEAN_MOTION_DDOT": 0}, "tle": {"line1": "1 41026U 15064A   25353.33354795  .00006249  00000+0  25679-3 0  9998", "line2": "2 41026  97.2809 130.9400 0012611 105.0417 255.2218 15.24456025563256"}}, "geometry": {"type": "Point", "coordinates": [-59.308396763835, -55.22174614217529]}}, {"type": "Feature", "properties": {"norad_id": 41038, "name": "YAOGAN-29", "group": "resource", "lat": 12.658653620322495, "lon": 15.084260469480318, "alt_km": 621.7429036214744, "timestamp": "2025-12-19T16:54:43.908292+00:00", "meta": {"OBJECT_NAME": "YAOGAN-29", "OBJECT_ID": "2015-069A", "EPOCH": "2025-12-19T07:08:16.872864", "MEAN_MOTION": 14.82889951, "ECCENTRICITY": 4.298e-05, "INCLINATION": 98.0213, "RA_OF_ASC_NODE": 16.4907, "ARG_OF_PERICENTER": 184.8804, "MEAN_ANOMALY": 175.2405, "EPHEMERIS_TYPE": 0, "CLASSIFICATION_TYPE": "U", "NORAD_CAT_ID": 41038, "ELEMENT_SET_NO": 999, "REV_AT_EPOCH": 54396, "BSTAR": 8.1504967e-05, "MEAN_MOTION_DOT": 6.06e-06, "MEAN_MOTION_DDOT": 0}, "tle": {"line1": "1 41038U 15069A   25353.29741751  .00000606  00000+0  81505-4 0  9995", "line2": "2 41038  98.0213  16.4907 0000429 184.8804 175.2405 14.82889951543962"}}, "geometry": {"type": "Point", "coordinates": [15.084260469480318, 12.658653620322495]}}, {"type": "Feature", "properties": {"norad_id": 41167, "name": "KENT RIDGE 1", "group": "resource", "lat": -14.963392187666013, "lon": 67.98695220802331, "alt_km": 495.169711291358, "timestamp": "2025-12-19T16:54:43.908303+00:00", "meta": {"OBJECT_NAME": "KENT RIDGE 1", "OBJECT_ID": "2015-077B", "EPOCH": "2025-12-19T03:09:12.310272", "MEAN_MOTION": 15.21684319, "ECCENTRICITY": 0.00085071, "INCLINATION": 14.9781, "RA_OF_ASC_NODE": 163.711, "ARG_OF_PERICENTER": 221.3147, "MEAN_ANOMALY": 138.6531, "EPHEMERIS_TYPE": 0, "CLASSIFICATION_TYPE": "U", "NORAD_CAT_ID": 41167, "ELEMENT_SET_NO": 999, "REV_AT_EPOCH": 55361, "BSTAR": 0.00013527237, "MEAN_MOTION_DOT": 3.907e-05, "MEAN_MOTION_DDOT": 0}, "tle": {"line1": "1 41167U 15077B   25353.13139248  .00003907  00000+0  13527-3 0  9997", "line2": "2 41167  14.9781 163.7110 0008507 221.3147 138.6531 15.21684319553617"}}, "geometry": {"type": "Point", "coordinates": [67.98695220802331, -14.963392187666013]}}, {"type": "Feature", "properties": {"norad_id": 41194, "name": "GAOFEN-4", "group": "resource", "lat": 0.04714331550713159, "lon": 87.90242458705595, "alt_km": 35785.14000813993, "timestamp": "2025-12-19T16:54:43.908315+00:00", "meta": {"OBJECT_NAME": "GAOFEN-4", "OBJECT_ID": "2015-083A", "EPOCH": "2025-12-19T06:55:04.393056", "MEAN_MOTION": 1.00273341, "ECCENTRICITY": 0.00029276, "INCLINATION": 0.1869, "RA_OF_ASC_NODE": 81.7775, "ARG_OF_PERICENTER": 93.5117, "MEAN_ANOMALY": 122.3296, "EPHEMERIS_TYPE": 0, "CLASSIFICATION_TYPE": "U", "NORAD_CAT_ID": 41194, "ELEMENT_SET_NO": 999, "REV_AT_EPOCH": 3672, "BSTAR": 0, "MEAN_MOTION_DOT": -3.1e-06, "MEAN_MOTION_DDOT": 0}, "tle": {"line1": "1 41194U 15083A   25353.28824529 -.00000310  00000+0  00000+0 0  9997", "line2": "2 41194   0.1869  81.7775 0002927  93.5117 122.3296  1.00273341 36720"}}, "geometry": {"type": "Point", "coordinates": [87.90242458705595, 0.04714331550713159]}}, {"type": "Feature", "properties": {"norad_id": 41240, "name": "JASON-3", "group": "resource", "lat": -12.734797292398198, "lon": -31.051403239410202, "alt_km": 1313.1476675610838, "timestamp": "2025-12-19T16:54:43.908346+00:00", "meta": {"OBJECT_NAME": "JASON-3", "OBJECT_ID": "2016-002A", "EPOCH": "2025-12-19T06:35:15.675072", "MEAN_MOTION": 12.87626863, "ECCENTRICITY": 0.00072062, "INCLINATION": 66.0398, "RA_OF_ASC_NODE": 144.0855, "ARG_OF_PERICENTER": 271.2132, "MEAN_ANOMALY": 88.8061, "EPHEMERIS_TYPE": 0, "CLASSIFICATION_TYPE": "U", "NORAD_CAT_ID": 41240, "ELEMENT_SET_NO": 999, "REV_AT_EPOCH": 46408, "BSTAR": 3.9979306e-05, "MEAN_MOTION_DOT": -5.2e-07, "MEAN_MOTION_DDOT": 0}, "tle": {"line1": "1 41240U 16002A   25353.27448698 -.00000052  00000+0  39979-4 0  9994", "line2": "2 41240  66.0398 144.0855 0007206 271.2132  88.8061 12.87626863464087"}}, "geometry": {"type": "Point", "coordinates": [-31.051403239410202, -12.734797292398198]}}, {"type": "Feature", "properties": {"norad_id": 41335, "name": "SENTINEL-3A", "group": "resource", "lat": 71.49064599276396, "lon": -94.400238479536, "alt_km": 795.1156484861713, "timestamp": "2025-12-19T16:54:43.908360+00:00", "meta": {"OBJECT_NAME": "SENTINEL-3A", "OBJECT_ID": "2016-011A", "EPOCH": "2025-12-19T06:18:59.793120", "MEAN_MOTION": 14.26733106, "ECCENTRICITY": 9.115e-05, "INCLINATION": 98.6307, "RA_OF_ASC_NODE": 58.1845, "ARG_OF_PERICENTER": 93.4063, "MEAN_ANOMALY": 266.7222, "EPHEMERIS_TYPE": 0, "CLASSIFICATION_TYPE": "U", "NORAD_CAT_ID": 41335, "ELEMENT_SET_NO": 999, "REV_AT_EPOCH": 51240, "BSTAR": 6.2359976e-05, "MEAN_MOTION_DOT": 1.07e-06, "MEAN_MOTION_DDOT": 0}, "tle": {"line1": "1 41335U 16011A   25353.26319205  .00000107  00000+0  62360-4 0  9999", "line2": "2 41335  98.6307  58.1845 0000911  93.4063 266.7222 14.26733106512400"}}, "geometry": {"type": "Point", "coordinates": [-94.400238479536, 71.49064599276396]}}]}